start=new Date('2022-07-30T00:00:00.000Z').valueOf();
sats=[{"EPOCH":"2022-07-29T18:41:58.273152","RCS_SIZE":"LARGE","OBJECT_NAME":"STARLINK-1481","ELEMENT_SET_NO":"999","DECAY_DATE":null,"REF_FRAME":"TEME","TLE_LINE2":"2 45742  53.0557  37.4312 0002381  84.5957 275.5303 15.06233708117392","CENTER_NAME":"EARTH","EPHEMERIS_TYPE":"0","RA_OF_ASC_NODE":"37.4312","OBJECT_ID":"2020-038N","APOAPSIS":"549.372","ARG_OF_PERICENTER":"84.5957","PERIOD":"95.603","TLE_LINE1":"1 45742U 20038N   22210.77914668  .00036097  00000-0  24407-2 0  9994","GP_ID":"209130627","LAUNCH_DATE":"2020-06-13","MEAN_MOTION_DDOT":"0.0000000000000","MEAN_MOTION":"15.06233708","BSTAR":"0.00244070000000","MEAN_MOTION_DOT":"0.00036097","TIME_SYSTEM":"UTC","MEAN_ANOMALY":"275.5303","MEAN_ELEMENT_THEORY":"SGP4","SITE":"AFETR","REV_AT_EPOCH":"11739","FILE":"3524848","PERIAPSIS":"546.074","ECCENTRICITY":"0.00023810","COUNTRY_CODE":"US","CLASSIFICATION_TYPE":"U","INCLINATION":"53.0557","OBJECT_TYPE":"PAYLOAD","SEMIMAJOR_AXIS":"6925.858","NORAD_CAT_ID":"45742"},{"RA_OF_ASC_NODE":"37.2952","EPHEMERIS_TYPE":"0","CENTER_NAME":"EARTH","TLE_LINE2":"2 45743  53.0561  37.2952 0001617  63.7942 296.3213 15.06409268117409","REF_FRAME":"TEME","DECAY_DATE":null,"ELEMENT_SET_NO":"999","OBJECT_NAME":"STARLINK-1483","RCS_SIZE":"LARGE","EPOCH":"2022-07-29T19:07:04.711584","NORAD_CAT_ID":"45743","OBJECT_TYPE":"PAYLOAD","SEMIMAJOR_AXIS":"6925.320","CLASSIFICATION_TYPE":"U","INCLINATION":"53.0561","COUNTRY_CODE":"US","PERIAPSIS":"546.065","FILE":"3524848","ECCENTRICITY":"0.00016170","REV_AT_EPOCH":"11740","MEAN_ELEMENT_THEORY":"SGP4","SITE":"AFETR","TIME_SYSTEM":"UTC","MEAN_ANOMALY":"296.3213","BSTAR":"0.00023369000000","MEAN_MOTION_DOT":"0.00003202","MEAN_MOTION":"15.06409268","MEAN_MOTION_DDOT":"0.0000000000000","LAUNCH_DATE":"2020-06-13","GP_ID":"209131362","TLE_LINE1":"1 45743U 20038P   22210.79658231  .00003202  00000-0  23369-3 0  9997","PERIOD":"95.592","ARG_OF_PERICENTER":"63.7942","APOAPSIS":"548.305","OBJECT_ID":"2020-038P"},{"ELEMENT_SET_NO":"999","DECAY_DATE":null,"RCS_SIZE":"LARGE","EPOCH":"2022-07-29T15:14:54.911328","OBJECT_NAME":"STARLINK-1500","CENTER_NAME":"EARTH","RA_OF_ASC_NODE":"38.0822","EPHEMERIS_TYPE":"0","REF_FRAME":"TEME","TLE_LINE2":"2 45744  53.0568  38.0822 0001404  83.9132 276.2017 15.06401108117382","GP_ID":"209130129","LAUNCH_DATE":"2020-06-13","MEAN_MOTION":"15.06401108","MEAN_MOTION_DDOT":"0.0000000000000","OBJECT_ID":"2020-038Q","TLE_LINE1":"1 45744U 20038Q   22210.63535777  .00000245  00000-0  35355-4 0  9993","PERIOD":"95.592","ARG_OF_PERICENTER":"83.9132","APOAPSIS":"548.182","COUNTRY_CODE":"US","FILE":"3524848","PERIAPSIS":"546.238","ECCENTRICITY":"0.00014040","OBJECT_TYPE":"PAYLOAD","SEMIMAJOR_AXIS":"6925.345","NORAD_CAT_ID":"45744","INCLINATION":"53.0568","CLASSIFICATION_TYPE":"U","MEAN_ANOMALY":"276.2017","TIME_SYSTEM":"UTC","BSTAR":"0.00003535500000","MEAN_MOTION_DOT":"0.00000245","REV_AT_EPOCH":"11738","SITE":"AFETR","MEAN_ELEMENT_THEORY":"SGP4"},{"LAUNCH_DATE":"2020-06-13","GP_ID":"209130378","MEAN_MOTION":"15.06403853","MEAN_MOTION_DDOT":"0.0000000000000","OBJECT_ID":"2020-038R","PERIOD":"95.592","TLE_LINE1":"1 45745U 20038R   22210.82335774  .00000412  00000-0  46568-4 0  9994","ARG_OF_PERICENTER":"81.7238","APOAPSIS":"548.205","COUNTRY_CODE":"US","ECCENTRICITY":"0.00014490","FILE":"3524848","PERIAPSIS":"546.198","OBJECT_TYPE":"PAYLOAD","SEMIMAJOR_AXIS":"6925.337","NORAD_CAT_ID":"45745","CLASSIFICATION_TYPE":"U","INCLINATION":"53.0564","TIME_SYSTEM":"UTC","MEAN_ANOMALY":"278.3915","BSTAR":"0.00004656800000","MEAN_MOTION_DOT":"0.00000412","REV_AT_EPOCH":"11740","MEAN_ELEMENT_THEORY":"SGP4","SITE":"AFETR","ELEMENT_SET_NO":"999","DECAY_DATE":null,"RCS_SIZE":"LARGE","EPOCH":"2022-07-29T19:45:38.108736","OBJECT_NAME":"STARLINK-1503","CENTER_NAME":"EARTH","RA_OF_ASC_NODE":"37.2355","EPHEMERIS_TYPE":"0","REF_FRAME":"TEME","TLE_LINE2":"2 45745  53.0564  37.2355 0001449  81.7238 278.3915 15.06403853117405"},{"CENTER_NAME":"EARTH","EPHEMERIS_TYPE":"0","RA_OF_ASC_NODE":"37.1781","REF_FRAME":"TEME","TLE_LINE2":"2 45746  53.0573  37.1781 0001265  90.4793 269.6341 15.06404824117402","ELEMENT_SET_NO":"999","DECAY_DATE":null,"EPOCH":"2022-07-29T20:06:50.555232","RCS_SIZE":"LARGE","OBJECT_NAME":"STARLINK-1504","ECCENTRICITY":"0.00012650","FILE":"3524848","PERIAPSIS":"546.323","COUNTRY_CODE":"US","INCLINATION":"53.0573","CLASSIFICATION_TYPE":"U","OBJECT_TYPE":"PAYLOAD","SEMIMAJOR_AXIS":"6925.334","NORAD_CAT_ID":"45746","BSTAR":"0.00012075000000","MEAN_MOTION_DOT":"0.00001518","MEAN_ANOMALY":"269.6341","TIME_SYSTEM":"UTC","SITE":"AFETR","MEAN_ELEMENT_THEORY":"SGP4","REV_AT_EPOCH":"11740","LAUNCH_DATE":"2020-06-13","GP_ID":"209131127","MEAN_MOTION_DDOT":"0.0000000000000","MEAN_MOTION":"15.06404824","OBJECT_ID":"2020-038S","APOAPSIS":"548.075","ARG_OF_PERICENTER":"90.4793","TLE_LINE1":"1 45746U 20038S   22210.83808513  .00001518  00000-0  12075-3 0  9995","PERIOD":"95.592"},{"REF_FRAME":"TEME","TLE_LINE2":"2 45747  53.0563  37.4599 0001493  84.1523 275.9636 15.06395121117402","CENTER_NAME":"EARTH","EPHEMERIS_TYPE":"0","RA_OF_ASC_NODE":"37.4599","EPOCH":"2022-07-29T18:36:37.401696","RCS_SIZE":"LARGE","OBJECT_NAME":"STARLINK-1506","ELEMENT_SET_NO":"999","DECAY_DATE":null,"MEAN_MOTION_DOT":"0.00000683","BSTAR":"0.00006476600000","TIME_SYSTEM":"UTC","MEAN_ANOMALY":"275.9636","MEAN_ELEMENT_THEORY":"SGP4","SITE":"AFETR","REV_AT_EPOCH":"11740","ECCENTRICITY":"0.00014930","FILE":"3524848","PERIAPSIS":"546.195","COUNTRY_CODE":"US","CLASSIFICATION_TYPE":"U","INCLINATION":"53.0563","OBJECT_TYPE":"PAYLOAD","SEMIMAJOR_AXIS":"6925.364","NORAD_CAT_ID":"45747","OBJECT_ID":"2020-038T","APOAPSIS":"548.262","ARG_OF_PERICENTER":"84.1523","TLE_LINE1":"1 45747U 20038T   22210.77543289  .00000683  00000-0  64766-4 0  9992","PERIOD":"95.592","LAUNCH_DATE":"2020-06-13","GP_ID":"209130863","MEAN_MOTION_DDOT":"0.0000000000000","MEAN_MOTION":"15.06395121"},{"TLE_LINE1":"1 45748U 20038U   22210.56438585  .00000383  00000-0  44614-4 0  9999","PERIOD":"95.592","APOAPSIS":"548.167","ARG_OF_PERICENTER":"84.8982","OBJECT_ID":"2020-038U","MEAN_MOTION":"15.06401032","MEAN_MOTION_DDOT":"0.0000000000000","LAUNCH_DATE":"2020-06-13","GP_ID":"209099923","REV_AT_EPOCH":"11736","SITE":"AFETR","MEAN_ELEMENT_THEORY":"SGP4","MEAN_ANOMALY":"275.2165","TIME_SYSTEM":"UTC","MEAN_MOTION_DOT":"0.00000383","BSTAR":"0.00004461400000","NORAD_CAT_ID":"45748","OBJECT_TYPE":"PAYLOAD","SEMIMAJOR_AXIS":"6925.345","INCLINATION":"53.0557","CLASSIFICATION_TYPE":"U","COUNTRY_CODE":"US","FILE":"3524608","PERIAPSIS":"546.253","ECCENTRICITY":"0.00013820","OBJECT_NAME":"STARLINK-1507","RCS_SIZE":"LARGE","EPOCH":"2022-07-29T13:32:42.937440","DECAY_DATE":null,"ELEMENT_SET_NO":"999","TLE_LINE2":"2 45748  53.0557  38.3921 0001382  84.8982 275.2165 15.06401032117362","REF_FRAME":"TEME","RA_OF_ASC_NODE":"38.3921","EPHEMERIS_TYPE":"0","CENTER_NAME":"EARTH"},{"OBJECT_NAME":"STARLINK-1391","RCS_SIZE":"LARGE","EPOCH":"2022-07-29T20:36:02.746368","DECAY_DATE":null,"ELEMENT_SET_NO":"999","TLE_LINE2":"2 45750  53.0566  17.0848 0001509  77.5758 282.5400 15.06394583117701","REF_FRAME":"TEME","RA_OF_ASC_NODE":"17.0848","EPHEMERIS_TYPE":"0","CENTER_NAME":"EARTH","TLE_LINE1":"1 45750U 20038W   22210.85836512  .00000940  00000-0  81979-4 0  9990","PERIOD":"95.592","APOAPSIS":"548.275","ARG_OF_PERICENTER":"77.5758","OBJECT_ID":"2020-038W","MEAN_MOTION":"15.06394583","MEAN_MOTION_DDOT":"0.0000000000000","GP_ID":"209129880","LAUNCH_DATE":"2020-06-13","REV_AT_EPOCH":"11770","SITE":"AFETR","MEAN_ELEMENT_THEORY":"SGP4","MEAN_ANOMALY":"282.5400","TIME_SYSTEM":"UTC","MEAN_MOTION_DOT":"0.00000940","BSTAR":"0.00008197900000","OBJECT_TYPE":"PAYLOAD","NORAD_CAT_ID":"45750","SEMIMAJOR_AXIS":"6925.365","INCLINATION":"53.0566","CLASSIFICATION_TYPE":"U","COUNTRY_CODE":"US","FILE":"3524848","PERIAPSIS":"546.185","ECCENTRICITY":"0.00015090"},{"ELEMENT_SET_NO":"999","DECAY_DATE":null,"RCS_SIZE":"LARGE","EPOCH":"2022-07-29T17:19:38.633088","OBJECT_NAME":"STARLINK-1464","CENTER_NAME":"EARTH","RA_OF_ASC_NODE":"17.7086","EPHEMERIS_TYPE":"0","REF_FRAME":"TEME","TLE_LINE2":"2 45751  53.0558  17.7086 0001246  79.4305 280.6824 15.06405424117684","LAUNCH_DATE":"2020-06-13","GP_ID":"209130628","MEAN_MOTION":"15.06405424","MEAN_MOTION_DDOT":"0.0000000000000","OBJECT_ID":"2020-038X","TLE_LINE1":"1 45751U 20038X   22210.72197492  .00000983  00000-0  84845-4 0  9996","PERIOD":"95.592","APOAPSIS":"548.060","ARG_OF_PERICENTER":"79.4305","COUNTRY_CODE":"US","PERIAPSIS":"546.334","FILE":"3524848","ECCENTRICITY":"0.00012460","SEMIMAJOR_AXIS":"6925.332","OBJECT_TYPE":"PAYLOAD","NORAD_CAT_ID":"45751","INCLINATION":"53.0558","CLASSIFICATION_TYPE":"U","MEAN_ANOMALY":"280.6824","TIME_SYSTEM":"UTC","BSTAR":"0.00008484500000","MEAN_MOTION_DOT":"0.00000983","REV_AT_EPOCH":"11768","SITE":"AFETR","MEAN_ELEMENT_THEORY":"SGP4"},{"MEAN_MOTION_DDOT":"0.0000000000000","MEAN_MOTION":"15.86685083","GP_ID":"209131363","LAUNCH_DATE":"2020-06-13","APOAPSIS":"315.469","ARG_OF_PERICENTER":"107.7365","PERIOD":"90.755","TLE_LINE1":"1 45752U 20038Y   22210.80534085  .00088851  00000-0  34061-3 0  9993","OBJECT_ID":"2020-038Y","INCLINATION":"52.9916","CLASSIFICATION_TYPE":"U","NORAD_CAT_ID":"45752","OBJECT_TYPE":"PAYLOAD","SEMIMAJOR_AXIS":"6689.721","FILE":"3524848","ECCENTRICITY":"0.00058040","PERIAPSIS":"307.703","COUNTRY_CODE":"US","SITE":"AFETR","MEAN_ELEMENT_THEORY":"SGP4","REV_AT_EPOCH":"12234","BSTAR":"0.00034061000000","MEAN_MOTION_DOT":"0.00088851","MEAN_ANOMALY":"252.4292","TIME_SYSTEM":"UTC","DECAY_DATE":null,"ELEMENT_SET_NO":"999","OBJECT_NAME":"STARLINK-1469","EPOCH":"2022-07-29T19:19:41.449440","RCS_SIZE":"LARGE","EPHEMERIS_TYPE":"0","RA_OF_ASC_NODE":"41.2419","CENTER_NAME":"EARTH","TLE_LINE2":"2 45752  52.9916  41.2419 0005804 107.7365 252.4292 15.86685083122342","REF_FRAME":"TEME"}];
